     2.100          NAVIGATION                              RINEX VERSION / TYPE
fic2rin                                 04/04/2013 00:27:18 PGM / RUN BY / DATE
                                                            END OF HEADER
 3 13  4  3  6  0  0.0  .189157202840D-03  .500222085975D-11  .000000000000D+00
     .102000000000D+03 -.838125000000D+02  .504449583779D-08  .279906195555D+01
    -.441819429398D-05  .160573064350D-01  .970065593719D-05  .515369129562D+04
     .280800000000D+06  .117346644402D-06 -.165207592947D+01 -.189989805222D-06
     .933674137356D+00  .174750000000D+03  .127762795186D+01 -.803497754621D-08
     .817891211309D-10  .100000000000D+01  .173400000000D+04  .000000000000D+00
     .340000000000D+01  .000000000000D+00 -.465661287308D-08  .102000000000D+03
     .273606000000D+06  .400000000000D+01
 4 13  4  3  6  0  0.0  .179568305612D-03  .109139364213D-10  .000000000000D+00
     .600000000000D+02  .596875000000D+01  .532522181686D-08 -.425508559888D+00
     .430271029472D-06  .103143572342D-01  .833347439766D-05  .515376778793D+04
     .280800000000D+06 -.484287738800D-07 -.466407356241D+00  .949949026108D-07
     .937964225083D+00  .205937500000D+03  .968333945053D+00 -.853535553182D-08
     .151077721565D-09  .100000000000D+01  .173400000000D+04  .000000000000D+00
     .240000000000D+01  .000000000000D+00 -.605359673500D-08  .600000000000D+02
     .273606000000D+06  .400000000000D+01
 5 13  4  3  6  0  0.0 -.390280969441D-03 -.136424205266D-11  .000000000000D+00
     .710000000000D+02  .493750000000D+01  .495484924650D-08 -.152728068306D+01
     .268220901489D-06  .305511103943D-02  .733137130737D-05  .515358325768D+04
     .280800000000D+06  .000000000000D+00  .581638175908D+00 -.707805156708D-07
     .949274992725D+00  .233531250000D+03  .303269082569D+00 -.824141471657D-08
    -.283583240952D-09  .100000000000D+01  .173400000000D+04  .000000000000D+00
     .240000000000D+01  .000000000000D+00 -.102445483208D-07  .710000000000D+02
     .273606000000D+06  .400000000000D+01
 6 13  4  3  6  0  0.0  .289225485176D-03 -.153477230924D-10  .000000000000D+00
     .470000000000D+02 -.644375000000D+02  .495663503517D-08 -.161660848859D+01
    -.353902578354D-05  .793339242227D-02  .104811042547D-04  .515368840599D+04
     .280800000000D+06 -.856816768646D-07 -.157298883869D+01 -.126659870148D-06
     .940328539155D+00  .167250000000D+03 -.359296722311D+00 -.829391690350D-08
     .249296098469D-09  .100000000000D+01  .173400000000D+04  .000000000000D+00
     .240000000000D+01  .000000000000D+00 -.512227416039D-08  .470000000000D+02
     .273606000000D+06  .400000000000D+01
 7 13  4  3  6  0  0.0  .198416411877D-03  .432009983342D-11  .000000000000D+00
     .870000000000D+02  .610312500000D+02  .420767526656D-08  .124170020527D+01
     .316463410854D-05  .616506114602D-02  .567920506001D-05  .515370341873D+04
     .280800000000D+06 -.465661287308D-07  .269819520227D+01  .558793544769D-07
     .975680213477D+00  .277187500000D+03 -.293454000908D+01 -.817069748520D-08
     .146077513286D-09  .100000000000D+01  .173400000000D+04  .000000000000D+00
     .240000000000D+01  .000000000000D+00 -.107102096081D-07  .870000000000D+02
     .273606000000D+06  .400000000000D+01
 9 13  4  3  6  0  0.0  .231368467212D-03  .261479726760D-11  .000000000000D+00
     .960000000000D+02  .494687500000D+02  .396373653411D-08  .158562442934D+01
     .231154263020D-05  .172679001698D-01  .613369047642D-05  .515280163956D+04
     .280800000000D+06  .117346644402D-06  .267461270243D+01 -.398606061935D-06
     .984316051503D+00  .270593750000D+03  .164374244296D+01 -.794854537453D-08
     .217509060125D-09  .100000000000D+01  .173400000000D+04  .000000000000D+00
     .340000000000D+01  .000000000000D+00 -.558793544769D-08  .960000000000D+02
     .273606000000D+06  .400000000000D+01
10 13  4  3  6  0  0.0 -.754371285439D-04 -.125055521494D-11  .000000000000D+00
     .190000000000D+03  .853125000000D+01  .507771150707D-08 -.125295165597D+01
     .480562448502D-06  .123514351435D-01  .714510679245D-05  .515361612320D+04
     .280800000000D+06  .337138772011D-06  .601380666467D+00  .577419996262D-07
     .944099792746D+00  .232250000000D+03  .798643752844D+00 -.829963142725D-08
    -.342157109360D-09  .100000000000D+01  .173400000000D+04  .000000000000D+00
     .340000000000D+01  .000000000000D+00 -.232830643654D-08  .190000000000D+03
     .273606000000D+06  .400000000000D+01
11 13  4  3  6  0  0.0 -.368653330952D-03 -.363797880709D-11  .000000000000D+00
     .420000000000D+02 -.671875000000D+01  .646705509309D-08  .144375397531D+01
    -.426545739174D-06  .138666008133D-01  .902824103832D-05  .515368424797D+04
     .280800000000D+06 -.322237610817D-06 -.755335261237D+00 -.763684511185D-07
     .888810986614D+00  .170312500000D+03  .115472875554D+01 -.902501878540D-08
     .301083969927D-09  .100000000000D+01  .173400000000D+04  .000000000000D+00
     .240000000000D+01  .000000000000D+00 -.116415321827D-07  .420000000000D+02
     .273606000000D+06  .400000000000D+01
13 13  4  3  6  0  0.0  .132136978209D-03 -.352429196937D-11  .000000000000D+00
     .190000000000D+02  .711250000000D+02  .384837458596D-08 -.257389580317D+01
     .366568565369D-05  .513054674957D-02  .100750476122D-04  .515377811050D+04
     .280800000000D+06  .353902578354D-07  .173050311106D+01  .372529029846D-07
     .981897695775D+00  .195093750000D+03  .207249719174D+01 -.768317717803D-08
    -.187507810453D-09  .100000000000D+01  .173400000000D+04  .000000000000D+00
     .240000000000D+01  .000000000000D+00 -.111758708954D-07  .190000000000D+02
     .273606000000D+06  .400000000000D+01
14 13  4  3  6  0  0.0  .221077818424D-03  .113686837722D-12  .000000000000D+00
     .900000000000D+01  .622187500000D+02  .397373695067D-08 -.245413432914D+01
     .325962901115D-05  .673738063779D-02  .888481736183D-05  .515372637367D+04
     .280800000000D+06  .242143869400D-07  .170162343021D+01 -.949949026108D-07
     .974598762990D+00  .217781250000D+03 -.202717836396D+01 -.763924677672D-08
    -.115361948145D-09  .100000000000D+01  .173400000000D+04  .000000000000D+00
     .240000000000D+01  .000000000000D+00 -.884756445885D-08  .900000000000D+01
     .273606000000D+06  .400000000000D+01
15 13  4  3  6  0  0.0 -.113848131150D-03 -.136424205266D-11  .000000000000D+00
     .400000000000D+02  .449062500000D+02  .477162732886D-08 -.296633992897D+01
     .236555933952D-05  .538393622264D-02  .909343361855D-05  .515373895836D+04
     .280800000000D+06 -.316649675369D-07  .160348267117D+01  .111758708954D-07
     .941265200251D+00  .195968750000D+03  .162331303190D+00 -.817176895841D-08
    -.172150027883D-09  .100000000000D+01  .173400000000D+04  .000000000000D+00
     .240000000000D+01  .000000000000D+00 -.102445483208D-07  .400000000000D+02
     .273606000000D+06  .400000000000D+01
16 13  4  3  6  0  0.0 -.252606347203D-03  .000000000000D+00  .000000000000D+00
     .150000000000D+02 -.736562500000D+02  .413767235066D-08 -.124885058604D+01
    -.403262674809D-05  .709111127071D-02  .538490712643D-05  .515361433792D+04
     .280800000000D+06  .149011611938D-07 -.250872342155D+01 -.633299350739D-07
     .984288952409D+00  .283031250000D+03  .591596668890D-01 -.809640867649D-08
     .567880797372D-10  .100000000000D+01  .173400000000D+04  .000000000000D+00
     .240000000000D+01  .000000000000D+00 -.977888703346D-08  .150000000000D+02
     .273606000000D+06  .400000000000D+01
17 13  4  3  6  0  0.0  .338098034263D-04 -.386535248253D-11  .000000000000D+00
     .450000000000D+02 -.689062500000D+02  .445089968355D-08 -.230371830645D+01
    -.348314642906D-05  .829802162480D-02  .946037471294D-05  .515361034012D+04
     .280800000000D+06  .162050127983D-06 -.147120903143D+01 -.111758708954D-07
     .964725672239D+00  .197343750000D+03 -.220229729301D+01 -.787425656582D-08
     .228580949885D-09  .100000000000D+01  .173400000000D+04  .000000000000D+00
     .240000000000D+01  .000000000000D+00 -.102445483208D-07  .450000000000D+02
     .273606000000D+06  .400000000000D+01
18 13  4  3  6  0  0.0  .247015152127D-03  .193267624127D-11  .000000000000D+00
     .190000000000D+02  .584375000000D+01  .555237413581D-08 -.815525205738D+00
     .329688191414D-06  .139600005932D-01  .706128776073D-05  .515376765633D+04
     .280800000000D+06 -.353902578354D-07  .585377837782D+00  .329688191414D-06
     .927889735863D+00  .226718750000D+03 -.211944950214D+01 -.872679207735D-08
    -.405731186047D-09  .100000000000D+01  .173400000000D+04  .000000000000D+00
     .240000000000D+01  .000000000000D+00 -.107102096081D-07  .190000000000D+02
     .273606000000D+06  .400000000000D+01
19 13  4  3  6  0  0.0 -.361687503755D-03 -.318323145621D-11  .000000000000D+00
     .490000000000D+02 -.653750000000D+02  .450340187048D-08 -.296940008588D+01
    -.335276126862D-05  .907241774257D-02  .109747052193D-04  .515368621826D+04
     .280800000000D+06 -.152736902237D-06 -.141907898142D+01 -.651925802231D-07
     .961984848405D+00  .168500000000D+03  .283236527538D+00 -.782925469131D-08
     .224652214809D-09  .100000000000D+01  .173400000000D+04  .000000000000D+00
     .240000000000D+01  .000000000000D+00 -.149011611938D-07  .490000000000D+02
     .273606000000D+06  .400000000000D+01
22 13  4  3  6  0  0.0  .163113698363D-03  .125055521494D-11  .000000000000D+00
     .940000000000D+02  .403125000000D+01  .547379943429D-08 -.138796833587D+01
     .838190317154D-07  .637852132786D-02  .744685530663D-05  .515364721870D+04
     .280800000000D+06  .154599547386D-06  .588090718419D+00  .150874257088D-06
     .925632071445D+00  .217531250000D+03 -.204236808668D+01 -.846463830045D-08
    -.410017078857D-09  .100000000000D+01  .173400000000D+04  .000000000000D+00
     .340000000000D+01  .000000000000D+00 -.172294676304D-07  .940000000000D+02
     .273606000000D+06  .400000000000D+01
